EUTELSAT 9B             
1 41310U 16005A   26064.65635504  .00000055  00000+0  00000+0 0  9991
2 41310   0.0287  62.4881 0004382 262.0675  84.1107  1.00271816 37076
EUTELSAT 65 WEST A      
1 41382U 16014A   26064.57029465 -.00000284  00000+0  00000+0 0  9999
2 41382   0.0729  43.1944 0002206 299.3209 320.8970  1.00271989 36495
EUTELSAT 117 WEST B     
1 41589U 16038B   26064.63139493 -.00000019  00000+0  00000+0 0  9990
2 41589   0.0191 305.9450 0000326 291.7627  35.9665  1.00274096 35620
EUTELSAT 172B           
1 42741U 17029B   26064.72891879 -.00000013  00000+0  00000+0 0  9999
2 42741   0.0209 150.8315 0000058 189.9180 257.0992  1.00272569 32701
EUTELSAT 7C             
1 44334U 19034B   26064.65592169  .00000041  00000+0  00000+0 0  9999
2 44334   0.0719 181.8978 0003239 150.9559  73.6280  1.00270081  5796
EUTELSAT 5 WEST B       
1 44624U 19067A   26064.65358169 -.00000049  00000+0  00000+0 0  9996
2 44624   0.0925 311.8541 0003208  43.0402  38.7482  1.00272905 23392
EUTELSAT KONNECT        
1 45027U 20005B   26064.65592169  .00000042  00000+0  00000+0 0  9990
2 45027   0.0666  98.0067 0001062 226.6184  82.0767  1.00271606 23295
EUTELSAT QUANTUM        
1 49056U 21069B   26064.44991411  .00000118  00000+0  00000+0 0  9991
2 49056   0.0432 315.3835 0002891  26.0728  31.3837  1.00272758 16888
EUTELSAT KONNECT VHTS   
1 53765U 22110A   26064.65505504  .00000010  00000+0  00000+0 0  9999
2 53765   0.0578 103.5889 0003235 222.2434  76.0602  1.00272878  5791
EUTELSAT HOTBIRD 13F    
1 54048U 22134A   26064.73843889  .00000080  00000+0  00000+0 0  9997
2 54048   0.0564 296.6815 0002075  65.0142  80.5925  1.00272351 12336
EUTELSAT HOTBIRD 13G    
1 54225U 22146A   26064.73843887  .00000080  00000+0  00000+0 0  9995
2 54225   0.0460 228.1623 0001937 311.6648 262.4657  1.00271999  6425
EUTELSAT 10B            
1 54259U 22157A   26064.65652837  .00000061  00000+0  00000+0 0  9997
2 54259   0.0575 102.9445 0001321 338.8743 327.8704  1.00271845 11980
EUTELSAT 36D            
1 59346U 24059A   26064.66164173  .00000149  00000+0  00000+0 0  9991
2 59346   0.0031 160.7232 0000226 211.3592  65.3427  1.00270575  7109
