[{"OBJECT_NAME":"EUTELSAT 9B","OBJECT_ID":"2016-005A","EPOCH":"2026-03-05T15:45:09.075456","MEAN_MOTION":1.00271816,"ECCENTRICITY":0.0004382,"INCLINATION":0.0287,"RA_OF_ASC_NODE":62.4881,"ARG_OF_PERICENTER":262.0675,"MEAN_ANOMALY":84.1107,"EPHEMERIS_TYPE":0,"CLASSIFICATION_TYPE":"U","NORAD_CAT_ID":41310,"ELEMENT_SET_NO":999,"REV_AT_EPOCH":3707,"BSTAR":0,"MEAN_MOTION_DOT":5.5e-7,"MEAN_MOTION_DDOT":0},{"OBJECT_NAME":"EUTELSAT 65 WEST A","OBJECT_ID":"2016-014A","EPOCH":"2026-03-05T13:41:13.457760","MEAN_MOTION":1.00271989,"ECCENTRICITY":0.0002206,"INCLINATION":0.0729,"RA_OF_ASC_NODE":43.1944,"ARG_OF_PERICENTER":299.3209,"MEAN_ANOMALY":320.897,"EPHEMERIS_TYPE":0,"CLASSIFICATION_TYPE":"U","NORAD_CAT_ID":41382,"ELEMENT_SET_NO":999,"REV_AT_EPOCH":3649,"BSTAR":0,"MEAN_MOTION_DOT":-2.84e-6,"MEAN_MOTION_DDOT":0},{"OBJECT_NAME":"EUTELSAT 117 WEST B","OBJECT_ID":"2016-038B","EPOCH":"2026-03-05T15:09:12.521952","MEAN_MOTION":1.00274096,"ECCENTRICITY":3.26e-5,"INCLINATION":0.0191,"RA_OF_ASC_NODE":305.945,"ARG_OF_PERICENTER":291.7627,"MEAN_ANOMALY":35.9665,"EPHEMERIS_TYPE":0,"CLASSIFICATION_TYPE":"U","NORAD_CAT_ID":41589,"ELEMENT_SET_NO":999,"REV_AT_EPOCH":3562,"BSTAR":0,"MEAN_MOTION_DOT":-1.9e-7,"MEAN_MOTION_DDOT":0},{"OBJECT_NAME":"EUTELSAT 172B","OBJECT_ID":"2017-029B","EPOCH":"2026-03-05T17:29:38.583456","MEAN_MOTION":1.00272569,"ECCENTRICITY":5.8e-6,"INCLINATION":0.0209,"RA_OF_ASC_NODE":150.8315,"ARG_OF_PERICENTER":189.918,"MEAN_ANOMALY":257.0992,"EPHEMERIS_TYPE":0,"CLASSIFICATION_TYPE":"U","NORAD_CAT_ID":42741,"ELEMENT_SET_NO":999,"REV_AT_EPOCH":3270,"BSTAR":0,"MEAN_MOTION_DOT":-1.3e-7,"MEAN_MOTION_DDOT":0},{"OBJECT_NAME":"EUTELSAT 7C","OBJECT_ID":"2019-034B","EPOCH":"2026-03-05T15:44:31.634016","MEAN_MOTION":1.00270081,"ECCENTRICITY":0.0003239,"INCLINATION":0.0719,"RA_OF_ASC_NODE":181.8978,"ARG_OF_PERICENTER":150.9559,"MEAN_ANOMALY":73.628,"EPHEMERIS_TYPE":0,"CLASSIFICATION_TYPE":"U","NORAD_CAT_ID":44334,"ELEMENT_SET_NO":999,"REV_AT_EPOCH":579,"BSTAR":0,"MEAN_MOTION_DOT":4.1e-7,"MEAN_MOTION_DDOT":0},{"OBJECT_NAME":"EUTELSAT 5 WEST B","OBJECT_ID":"2019-067A","EPOCH":"2026-03-05T15:41:09.458016","MEAN_MOTION":1.00272905,"ECCENTRICITY":0.0003208,"INCLINATION":0.0925,"RA_OF_ASC_NODE":311.8541,"ARG_OF_PERICENTER":43.0402,"MEAN_ANOMALY":38.7482,"EPHEMERIS_TYPE":0,"CLASSIFICATION_TYPE":"U","NORAD_CAT_ID":44624,"ELEMENT_SET_NO":999,"REV_AT_EPOCH":2339,"BSTAR":0,"MEAN_MOTION_DOT":-4.9e-7,"MEAN_MOTION_DDOT":0},{"OBJECT_NAME":"EUTELSAT KONNECT","OBJECT_ID":"2020-005B","EPOCH":"2026-03-05T15:44:31.634016","MEAN_MOTION":1.00271606,"ECCENTRICITY":0.0001062,"INCLINATION":0.0666,"RA_OF_ASC_NODE":98.0067,"ARG_OF_PERICENTER":226.6184,"MEAN_ANOMALY":82.0767,"EPHEMERIS_TYPE":0,"CLASSIFICATION_TYPE":"U","NORAD_CAT_ID":45027,"ELEMENT_SET_NO":999,"REV_AT_EPOCH":2329,"BSTAR":0,"MEAN_MOTION_DOT":4.2e-7,"MEAN_MOTION_DDOT":0},{"OBJECT_NAME":"EUTELSAT QUANTUM","OBJECT_ID":"2021-069B","EPOCH":"2026-03-05T10:47:52.579104","MEAN_MOTION":1.00272758,"ECCENTRICITY":0.0002891,"INCLINATION":0.0432,"RA_OF_ASC_NODE":315.3835,"ARG_OF_PERICENTER":26.0728,"MEAN_ANOMALY":31.3837,"EPHEMERIS_TYPE":0,"CLASSIFICATION_TYPE":"U","NORAD_CAT_ID":49056,"ELEMENT_SET_NO":999,"REV_AT_EPOCH":1688,"BSTAR":0,"MEAN_MOTION_DOT":1.18e-6,"MEAN_MOTION_DDOT":0},{"OBJECT_NAME":"EUTELSAT KONNECT VHTS","OBJECT_ID":"2022-110A","EPOCH":"2026-03-05T15:43:16.755456","MEAN_MOTION":1.00272878,"ECCENTRICITY":0.0003235,"INCLINATION":0.0578,"RA_OF_ASC_NODE":103.5889,"ARG_OF_PERICENTER":222.2434,"MEAN_ANOMALY":76.0602,"EPHEMERIS_TYPE":0,"CLASSIFICATION_TYPE":"U","NORAD_CAT_ID":53765,"ELEMENT_SET_NO":999,"REV_AT_EPOCH":579,"BSTAR":0,"MEAN_MOTION_DOT":1.0e-7,"MEAN_MOTION_DDOT":0},{"OBJECT_NAME":"EUTELSAT HOTBIRD 13F","OBJECT_ID":"2022-134A","EPOCH":"2026-03-05T17:43:21.120096","MEAN_MOTION":1.00272351,"ECCENTRICITY":0.0002075,"INCLINATION":0.0564,"RA_OF_ASC_NODE":296.6815,"ARG_OF_PERICENTER":65.0142,"MEAN_ANOMALY":80.5925,"EPHEMERIS_TYPE":0,"CLASSIFICATION_TYPE":"U","NORAD_CAT_ID":54048,"ELEMENT_SET_NO":999,"REV_AT_EPOCH":1233,"BSTAR":0,"MEAN_MOTION_DOT":8.0e-7,"MEAN_MOTION_DDOT":0},{"OBJECT_NAME":"EUTELSAT HOTBIRD 13G","OBJECT_ID":"2022-146A","EPOCH":"2026-03-05T17:43:21.118368","MEAN_MOTION":1.00271999,"ECCENTRICITY":0.0001937,"INCLINATION":0.046,"RA_OF_ASC_NODE":228.1623,"ARG_OF_PERICENTER":311.6648,"MEAN_ANOMALY":262.4657,"EPHEMERIS_TYPE":0,"CLASSIFICATION_TYPE":"U","NORAD_CAT_ID":54225,"ELEMENT_SET_NO":999,"REV_AT_EPOCH":642,"BSTAR":0,"MEAN_MOTION_DOT":8.0e-7,"MEAN_MOTION_DDOT":0},{"OBJECT_NAME":"EUTELSAT 10B","OBJECT_ID":"2022-157A","EPOCH":"2026-03-05T15:45:24.051168","MEAN_MOTION":1.00271845,"ECCENTRICITY":0.0001321,"INCLINATION":0.0575,"RA_OF_ASC_NODE":102.9445,"ARG_OF_PERICENTER":338.8743,"MEAN_ANOMALY":327.8704,"EPHEMERIS_TYPE":0,"CLASSIFICATION_TYPE":"U","NORAD_CAT_ID":54259,"ELEMENT_SET_NO":999,"REV_AT_EPOCH":1198,"BSTAR":0,"MEAN_MOTION_DOT":6.1e-7,"MEAN_MOTION_DDOT":0},{"OBJECT_NAME":"EUTELSAT 36D","OBJECT_ID":"2024-059A","EPOCH":"2026-03-05T15:52:45.845472","MEAN_MOTION":1.00270575,"ECCENTRICITY":2.26e-5,"INCLINATION":0.0031,"RA_OF_ASC_NODE":160.7232,"ARG_OF_PERICENTER":211.3592,"MEAN_ANOMALY":65.3427,"EPHEMERIS_TYPE":0,"CLASSIFICATION_TYPE":"U","NORAD_CAT_ID":59346,"ELEMENT_SET_NO":999,"REV_AT_EPOCH":710,"BSTAR":0,"MEAN_MOTION_DOT":1.49e-6,"MEAN_MOTION_DDOT":0}]
